USA 270                 
1 41744U 16052A   24184.27868900 -.00000360  00000+0  00000+0 0  9991
2 41744   2.3555  86.3447 0000916 190.3052 225.1566  1.00129869 20960
USA 271                 
1 41745U 16052B   24184.40020501  .00000108  00000+0  00000+0 0  9993
2 41745   2.3307  86.3717 0000991  89.3017  94.2637  0.99807590 20759
INTELSAT 36 (IS-36)     
1 41747U 16053A   24188.84790348 -.00000029  00000+0  00000+0 0  9994
2 41747   0.0103  21.4773 0002446 341.3646 296.1939  1.00271955 28825
INTELSAT 33E (IS-33E)   
1 41748U 16053B   24189.56185791  .00000045  00000+0  00000+0 0  9992
2 41748   0.0153  40.4696 0001486  54.4476  93.3325  1.00272172 29135
INSAT-3DR               
1 41752U 16054A   24189.34982653 -.00000081  00000+0  00000+0 0  9997
2 41752   0.0599  91.0972 0010550 175.2963 219.3266  1.00271542 28704
GSAT-18                 
1 41793U 16060A   24188.77749850 -.00000081  00000+0  00000+0 0  9995
2 41793   0.0248  50.1658 0002230  66.8198 162.1352  1.00270389 28404
SKY MUSTER 2 (NBN1B)    
1 41794U 16060B   24189.72176916 -.00000248  00000+0  00000+0 0  9994
2 41794   0.0185  38.9489 0001400  58.3950 233.4384  1.00270208 28464
HIMAWARI-9              
1 41836U 16064A   24190.02410551 -.00000278  00000+0  00000+0 0  9999
2 41836   0.0176 143.3095 0000869 316.5734 336.0028  1.00273267 28195
SHIJIAN-17 (SJ-17)      
1 41838U 16065A   24189.60763383 -.00000053  00000+0  00000+0 0  9999
2 41838   3.9393  81.1806 0003987   1.6198 229.1670  1.00271892 28095
GOES 16                 
1 41866U 16071A   24189.53496792 -.00000251  00000+0  00000+0 0  9996
2 41866   0.0790 250.0285 0000051 265.1795 248.1401  1.00270536 27986
TIANLIAN 1-04           
1 41869U 16072A   24189.34849639  .00000027  00000+0  00000+0 0  9991
2 41869   0.1358 265.5424 0035493 246.5607  75.9296  1.00272291 28191
WGS F8 (USA 272)        
1 41879U 16075A   24189.35535698 -.00000205  00000+0  00000+0 0  9992
2 41879   0.0121  20.7069 0000502 278.8643 263.9323  1.00279470 27708
FENGYUN 4A              
1 41882U 16077A   24189.56719867 -.00000203  00000+0  00000+0 0  9991
2 41882   0.5090  85.9264 0007981 344.2424 146.7706  1.00267710 27814
ECHOSTAR 19             
1 41893U 16079A   24189.60213507 -.00000142  00000+0  00000+0 0  9992
2 41893   0.0182  35.9228 0001324  85.8584 283.9274  1.00272647 27626
JCSAT-110A (JCSAT-15)   
1 41903U 16082A   24189.79653212 -.00000354  00000+0  00000+0 0  9994
2 41903   0.0183  29.5659 0000521 115.3660 178.1125  1.00272033 27661
STAR ONE D1             
1 41904U 16082B   24189.84354890 -.00000214  00000+0  00000+0 0  9996
2 41904   0.0457  71.9841 0001934  33.5476  40.4433  1.00270396 27679
TJS-2                   
1 41911U 17001A   24189.77779409 -.00000009  00000+0  00000+0 0  9997
2 41911   0.1571 267.1005 0001460 181.3204 184.2297  1.00272351 27613
SBIRS GEO-4 (USA 273)   
1 41937U 17004A   24189.60222209 -.00000148  00000+0  00000+0 0  9995
2 41937   1.4150   0.6068 0001648 106.9411 298.4854  1.00271818 27487
HISPASAT 36W-1          
1 41942U 17006A   24189.68581480 -.00000248  00000+0  00000+0 0  9991
2 41942   0.0107  57.7797 0001022  53.8628  25.3895  1.00269017 27411
TELKOM 3S               
1 41944U 17007A   24190.07420429 -.00000366  00000+0  00000+0 0  9995
2 41944   0.0144  56.6632 0002047  52.0750 322.4840  1.00272047 27109
INTELSAT 32E (IS-32E)   
1 41945U 17007B   24189.82757102 -.00000272  00000+0  00000+0 0  9994
2 41945   0.0190  31.8601 0000797 317.1935 191.9612  1.00273071 27139
ECHOSTAR 23             
1 42070U 17014A   24189.45572800 -.00000061  00000+0  00000+0 0  9997
2 42070   0.0176  30.1833 0002155  73.4400 236.4308  1.00271949 26803
WGS F9 (USA 275)        
1 42075U 17016A   24189.83374962 -.00000100  00000+0  00000+0 0  9999
2 42075   0.0093  60.6744 0000467 172.0736 341.6335  1.00272697 26818
SES-10                  
1 42432U 17017A   24189.89435441 -.00000276  00000+0  00000+0 0  9997
2 42432   0.0207  49.7860 0002293  49.5411  82.0613  1.00272099 26615
CHINASAT 16 (SJ-13)     
1 42662U 17018A   24188.74773896 -.00000356  00000+0  00000+0 0  9994
2 42662   0.0611  92.4823 0004057 135.3248  77.0726  1.00273831 26619
KOREASAT 7              
1 42691U 17023A   24189.57294215 -.00000366  00000+0  00000+0 0  9998
2 42691   0.0238  17.3871 0000278  93.6699 137.1215  1.00271840 26262
SGDC                    
1 42692U 17023B   24189.41389209 -.00000253  00000+0  00000+0 0  9995
2 42692   0.0130  23.4743 0002056  90.7288 245.7999  1.00272208 26330
GSAT-9                  
1 42695U 17024A   24189.60387605 -.00000290  00000+0  00000+0 0  9999
2 42695   0.0364 100.4951 0002467   0.1093 140.1692  1.00271746 26192
INMARSAT 5-F4           
1 42698U 17025A   24188.97476487  .00000071  00000+0  00000+0 0  9995
2 42698   0.0187  41.1909 0000444 156.3357 135.3002  1.00272541 26153
SES-15                  
1 42709U 17026A   24189.73891263  .00000057  00000+0  00000+0 0  9991
2 42709   0.0201  34.8418 0000137  41.3392 346.8497  1.00269184 27076
QZS-2 (MICHIBIKI-2)     
1 42738U 17028A   24188.46195543 -.00000158  00000+0  00000+0 0  9995
2 42738  40.5420 253.4839 0757875 269.4335  69.8869  1.00279302   499
VIASAT-2                
1 42740U 17029A   24189.60744345 -.00000269  00000+0  00000+0 0  9999
2 42740   0.0158  54.6454 0000036 314.8287  65.3318  1.00272489 26066
EUTELSAT 172B           
1 42741U 17029B   24190.08490807 -.00000009  00000+0  00000+0 0  9997
2 42741   0.0051 125.9355 0000104 189.3666 173.7775  1.00271315 26601
GSAT-19                 
1 42747U 17031A   24189.55942128  .00000121  00000+0  00000+0 0  9998
2 42747   0.0250 287.9134 0006178 147.7232  99.6429  1.00273500 26011
ECHOSTAR 21             
1 42749U 17032A   24189.90466082  .00000064  00000+0  00000+0 0  9996
2 42749   2.4958 320.6058 0002057 142.4005 159.2549  1.00271495 26002
BULGARIASAT-1           
1 42801U 17038A   24189.83653434  .00000008  00000+0  00000+0 0  9990
2 42801   0.0294  61.0377 0002721  61.9536 106.3419  1.00273942 25793
HELLAS-SAT 3            
1 42814U 17040A   24189.70078269  .00000149  00000+0  00000+0 0  9996
2 42814   0.0701  38.7302 0003576  21.4382 157.2508  1.00274587 25743
GSAT-17                 
1 42815U 17040B   24189.42535330 -.00000262  00000+0  00000+0 0  9990
2 42815   0.0658  99.9460 0001613 157.0118 275.5068  1.00272124 25674
INTELSAT 35E (IS-35E)   
1 42818U 17041A   24189.39994269 -.00000242  00000+0  00000+0 0  9998
2 42818   0.0219  46.1403 0001019  57.9753 291.2281  1.00269228 25699
COSMOS 2520             
1 42907U 17046A   24189.84509961  .00000134  00000+0  00000+0 0  9992
2 42907   0.0360 102.8187 0001002   3.7777 168.9069  1.00268242 25285
TDRS 13                 
1 42915U 17047A   24189.83383664 -.00000100  00000+0  00000+0 0  9995
2 42915   3.6236 345.0857 0017508 118.0726 111.8393  1.00272253 25264
QZS-3 (MICHIBIKI-3)     
1 42917U 17048A   24190.02966010 -.00000351  00000+0  00000+0 0  9991
2 42917   0.0663 213.7694 0001978 259.1534 311.2466  1.00273986 25259
AMAZONAS 5              
1 42934U 17053A   24181.05465904 -.00000279  00000+0  00000+0 0  9994
2 42934   0.0366  40.3555 0004889  35.4242 160.5076  1.00269263 24842
ASIASAT 9               
1 42942U 17057A   24189.93191874 -.00000363  00000+0  00000+0 0  9998
2 42942   0.0137  90.1971 0002462  24.8058 268.9550  1.00270936 24832
INTELSAT 37E (IS-37E)   
1 42950U 17059A   24189.40298847 -.00000145  00000+0  00000+0 0  9997
2 42950   0.0229  43.4084 0002432  70.4121 299.1048  1.00269708 24949
BSAT-4A                 
1 42951U 17059B   24189.57172384 -.00000354  00000+0  00000+0 0  9995
2 42951   0.0474  52.2897 0003347  25.0233 164.3476  1.00270168 24689
QZS-4 (MICHIBIKI-4)     
1 42965U 17062A   24176.78903547 -.00000324  00000+0  00000+0 0  9993
2 42965  40.5115 352.6916 0746082 271.6310  68.9097  1.00249876 24566
SES-11 (ECHOSTAR 105)   
1 42967U 17063A   24189.67215225 -.00000093  00000+0  00000+0 0  9990
2 42967   0.0307 304.3000 0002047 165.2012 313.6419  1.00271576 24697
KOREASAT 5A             
1 42984U 17067A   24189.57242002 -.00000362  00000+0  00000+0 0  9994
2 42984   0.0123  15.0413 0001014  73.3301 156.8256  1.00268641 24414
ALCOMSAT 1              
1 43039U 17078A   24189.83122597 -.00000189  00000+0  00000+0 0  9990
2 43039   0.0499 195.1195 0001477 290.3927  75.1790  1.00271141 24164
SBIRS GEO-3 (USA 282)   
1 43162U 18009A   24189.80442301  .00000127  00000+0  00000+0 0  9998
2 43162   2.3364 336.5108 0001434 133.5698 306.3508  1.00272591 23725
AL YAH 3                
1 43174U 18012A   24189.83218322 -.00000159  00000+0  00000+0 0  9998
2 43174   0.0770 267.4921 0002077 220.9636  77.2911  1.00270877 23723
SES-14                  
1 43175U 18012B   24189.68346519 -.00000282  00000+0  00000+0 0  9999
2 43175   0.0105   9.7937 0000865 103.1991  11.6667  1.00271954 23928
GOES 17                 
1 43226U 18022A   24189.67223927 -.00000094  00000+0  00000+0 0  9994
2 43226   0.0077 151.1919 0000858   7.2601 264.9484  1.00270723 23326
HISPASAT 30W-6          
1 43228U 18023A   24189.97349766 -.00000219  00000+0  00000+0 0  9999
2 43228   0.0406  44.1737 0005135  38.8857 163.8198  1.00274901 23386
SUPERBIRD-B3            
1 43271U 18033A   24189.40188253 -.00000096  00000+0  00000+0 0  9991
2 43271   0.0431 266.4396 0001158 214.5910 111.4741  1.00271230 22942
HYLAS 4                 
1 43272U 18033B   24189.82948552 -.00000237  00000+0  00000+0 0  9991
2 43272   0.0789 266.2332 0000803 219.4394  65.7174  1.00272298 22950
IRNSS-1I                
1 43286U 18035A   24188.79146674  .00000062  00000+0  00000+0 0  9993
2 43286  29.1489  85.3235 0018322 180.4236 359.4206  1.00271341 22950
USA 283                 
1 43339U 18036A   24178.48510830 -.00000313  00000+0  00000+0 0  9997
2 43339   0.0110 111.2886 0000138 102.4144  10.0948  1.00269846   177
